{
  "links" : {
    "next" : "https://api.nasa.gov/neo/rest/v1/feed?start_date=2008-01-23&end_date=2008-01-23&detailed=true&api_key=t0TVs3DtDT2H8Oy2Zy8m2eVrNsAVKAexjcZXUckd",
    "prev" : "https://api.nasa.gov/neo/rest/v1/feed?start_date=2008-01-21&end_date=2008-01-21&detailed=true&api_key=t0TVs3DtDT2H8Oy2Zy8m2eVrNsAVKAexjcZXUckd",
    "self" : "https://api.nasa.gov/neo/rest/v1/feed?start_date=2008-01-22&end_date=2008-01-22&detailed=true&api_key=t0TVs3DtDT2H8Oy2Zy8m2eVrNsAVKAexjcZXUckd"
  },
  "element_count" : 5,
  "near_earth_objects" : {
    "2008-01-22" : [ {
      "links" : {
        "self" : "https://api.nasa.gov/neo/rest/v1/neo/2101869?api_key=t0TVs3DtDT2H8Oy2Zy8m2eVrNsAVKAexjcZXUckd"
      },
      "neo_reference_id" : "2101869",
      "name" : "101869 (1999 MM)",
      "nasa_jpl_url" : "http://ssd.jpl.nasa.gov/sbdb.cgi?sstr=2101869",
      "absolute_magnitude_h" : 19.3,
      "estimated_diameter" : {
        "kilometers" : {
          "estimated_diameter_min" : 0.3669061375,
          "estimated_diameter_max" : 0.8204270649
        },
        "meters" : {
          "estimated_diameter_min" : 366.9061375314,
          "estimated_diameter_max" : 820.4270648822
        },
        "miles" : {
          "estimated_diameter_min" : 0.2279848336,
          "estimated_diameter_max" : 0.5097895857
        },
        "feet" : {
          "estimated_diameter_min" : 1203.7603322587,
          "estimated_diameter_max" : 2691.6899315481
        }
      },
      "is_potentially_hazardous_asteroid" : true,
      "close_approach_data" : [ {
        "close_approach_date" : "2008-01-22",
        "epoch_date_close_approach" : 1200988800000,
        "relative_velocity" : {
          "kilometers_per_second" : "26.9702145757",
          "kilometers_per_hour" : "97092.7724725499",
          "miles_per_hour" : "60329.6729844019"
        },
        "miss_distance" : {
          "astronomical" : "0.2927721316",
          "lunar" : "113.8883666992",
          "kilometers" : "43798088",
          "miles" : "27214872"
        },
        "orbiting_body" : "Earth"
      } ],
      "orbital_data" : {
        "orbit_id" : "57",
        "orbit_determination_date" : "2017-04-06 09:28:11",
        "orbit_uncertainty" : "0",
        "minimum_orbit_intersection" : ".00157423",
        "jupiter_tisserand_invariant" : "4.085",
        "epoch_osculation" : "2458000.5",
        "eccentricity" : ".6109913983258557",
        "semi_major_axis" : "1.624329416336865",
        "inclination" : "4.764200329639301",
        "ascending_node_longitude" : "110.9782392510845",
        "orbital_period" : "756.1528457429033",
        "perihelion_distance" : ".6318781149073827",
        "perihelion_argument" : "268.7702787155998",
        "aphelion_distance" : "2.616780717766347",
        "perihelion_time" : "2458221.642309836644",
        "mean_anomaly" : "254.7154242830685",
        "mean_motion" : ".4760942209326847",
        "equinox" : "J2000"
      }
    }, {
      "links" : {
        "self" : "https://api.nasa.gov/neo/rest/v1/neo/2350964?api_key=t0TVs3DtDT2H8Oy2Zy8m2eVrNsAVKAexjcZXUckd"
      },
      "neo_reference_id" : "2350964",
      "name" : "350964 (2003 BT35)",
      "nasa_jpl_url" : "http://ssd.jpl.nasa.gov/sbdb.cgi?sstr=2350964",
      "absolute_magnitude_h" : 18.6,
      "estimated_diameter" : {
        "kilometers" : {
          "estimated_diameter_min" : 0.5064714588,
          "estimated_diameter_max" : 1.1325046106
        },
        "meters" : {
          "estimated_diameter_min" : 506.4714588346,
          "estimated_diameter_max" : 1132.5046106177
        },
        "miles" : {
          "estimated_diameter_min" : 0.3147066768,
          "estimated_diameter_max" : 0.7037055224
        },
        "feet" : {
          "estimated_diameter_min" : 1661.651821003,
          "estimated_diameter_max" : 3715.566426699
        }
      },
      "is_potentially_hazardous_asteroid" : false,
      "close_approach_data" : [ {
        "close_approach_date" : "2008-01-22",
        "epoch_date_close_approach" : 1200988800000,
        "relative_velocity" : {
          "kilometers_per_second" : "28.9378887296",
          "kilometers_per_hour" : "104176.399426717",
          "miles_per_hour" : "64731.1632993398"
        },
        "miss_distance" : {
          "astronomical" : "0.2356203849",
          "lunar" : "91.6563262939",
          "kilometers" : "35248308",
          "miles" : "21902282"
        },
        "orbiting_body" : "Earth"
      } ],
      "orbital_data" : {
        "orbit_id" : "48",
        "orbit_determination_date" : "2017-04-06 09:23:05",
        "orbit_uncertainty" : "0",
        "minimum_orbit_intersection" : ".215428",
        "jupiter_tisserand_invariant" : "4.283",
        "epoch_osculation" : "2458000.5",
        "eccentricity" : ".1711682722825463",
        "semi_major_axis" : "1.394617519000431",
        "inclination" : "57.26480537383382",
        "ascending_node_longitude" : "122.5748553499582",
        "orbital_period" : "601.5629792957892",
        "perihelion_distance" : "1.155903247778156",
        "perihelion_argument" : "41.58817428103941",
        "aphelion_distance" : "1.633331790222706",
        "perihelion_time" : "2458140.051970778331",
        "mean_anomaly" : "276.4863676634318",
        "mean_motion" : ".5984410816327639",
        "equinox" : "J2000"
      }
    }, {
      "links" : {
        "self" : "https://api.nasa.gov/neo/rest/v1/neo/3285073?api_key=t0TVs3DtDT2H8Oy2Zy8m2eVrNsAVKAexjcZXUckd"
      },
      "neo_reference_id" : "3285073",
      "name" : "(2005 OU1)",
      "nasa_jpl_url" : "http://ssd.jpl.nasa.gov/sbdb.cgi?sstr=3285073",
      "absolute_magnitude_h" : 20.1,
      "estimated_diameter" : {
        "kilometers" : {
          "estimated_diameter_min" : 0.2538370294,
          "estimated_diameter_max" : 0.5675968529
        },
        "meters" : {
          "estimated_diameter_min" : 253.8370293645,
          "estimated_diameter_max" : 567.5968528656
        },
        "miles" : {
          "estimated_diameter_min" : 0.1577269688,
          "estimated_diameter_max" : 0.3526882241
        },
        "feet" : {
          "estimated_diameter_min" : 832.7986794202,
          "estimated_diameter_max" : 1862.1944587557
        }
      },
      "is_potentially_hazardous_asteroid" : false,
      "close_approach_data" : [ {
        "close_approach_date" : "2008-01-22",
        "epoch_date_close_approach" : 1200988800000,
        "relative_velocity" : {
          "kilometers_per_second" : "12.8686353738",
          "kilometers_per_hour" : "46327.0873457027",
          "miles_per_hour" : "28785.8504676673"
        },
        "miss_distance" : {
          "astronomical" : "0.2948866831",
          "lunar" : "114.7109146118",
          "kilometers" : "44114420",
          "miles" : "27411430"
        },
        "orbiting_body" : "Earth"
      } ],
      "orbital_data" : {
        "orbit_id" : "41",
        "orbit_determination_date" : "2017-04-06 09:10:44",
        "orbit_uncertainty" : "2",
        "minimum_orbit_intersection" : ".127091",
        "jupiter_tisserand_invariant" : "6.134",
        "epoch_osculation" : "2458000.5",
        "eccentricity" : ".3198604954227676",
        "semi_major_axis" : ".9757921395819541",
        "inclination" : "12.52256077183729",
        "ascending_node_longitude" : "309.7356423432145",
        "orbital_period" : "352.0743611501736",
        "perihelion_distance" : ".6636747823856279",
        "perihelion_argument" : "204.8398408557363",
        "aphelion_distance" : "1.28790949677828",
        "perihelion_time" : "2458027.463872286811",
        "mean_anomaly" : "332.4291368688689",
        "mean_motion" : "1.022511263881683",
        "equinox" : "J2000"
      }
    } ]
  }
}